[{"OBJECT_NAME":"STARLINK-32935","OBJECT_ID":"2025-048V","EPOCH":"2026-03-09T09:30:54.046368","MEAN_MOTION":15.27579244,"ECCENTRICITY":0.00014379,"INCLINATION":43.0001,"RA_OF_ASC_NODE":87.2906,"ARG_OF_PERICENTER":266.9278,"MEAN_ANOMALY":93.1409,"EPHEMERIS_TYPE":0,"CLASSIFICATION_TYPE":"U","NORAD_CAT_ID":63202,"ELEMENT_SET_NO":999,"REV_AT_EPOCH":5704,"BSTAR":0.0011227453,"MEAN_MOTION_DOT":0.00030762,"MEAN_MOTION_DDOT":0},{"OBJECT_NAME":"KUIPER-00274","OBJECT_ID":"2026-030AE","EPOCH":"2026-03-09T22:00:01.999584","MEAN_MOTION":15.29896925,"ECCENTRICITY":0.00182929,"INCLINATION":51.8831,"RA_OF_ASC_NODE":218.6923,"ARG_OF_PERICENTER":71.2033,"MEAN_ANOMALY":115.2248,"EPHEMERIS_TYPE":0,"CLASSIFICATION_TYPE":"U","NORAD_CAT_ID":67792,"ELEMENT_SET_NO":999,"REV_AT_EPOCH":410,"BSTAR":0.0017989756,"MEAN_MOTION_DOT":0.00053102,"MEAN_MOTION_DDOT":0}]
